start=new Date('2022-08-21T00:00:00.000Z').valueOf();
sats=[{"MEAN_MOTION_DDOT":"0.0000000000000","CENTER_NAME":"EARTH","MEAN_ANOMALY":"271.7617","REV_AT_EPOCH":"14560","RA_OF_ASC_NODE":"48.7485","COUNTRY_CODE":"US","CLASSIFICATION_TYPE":"U","MEAN_MOTION":"15.06394121","SEMIMAJOR_AXIS":"6925.367","OBJECT_ID":"2020-001U","OBJECT_TYPE":"PAYLOAD","NORAD_CAT_ID":"44932","RCS_SIZE":"LARGE","REF_FRAME":"TEME","EPHEMERIS_TYPE":"0","ECCENTRICITY":"0.00015320","PERIAPSIS":"546.171","BSTAR":"0.00001407900000","TLE_LINE2":"2 44932  53.0560  48.7485 0001532  88.3547 271.7617 15.06394121145604","INCLINATION":"53.0560","OBJECT_NAME":"STARLINK-1130","GP_ID":"210616996","TIME_SYSTEM":"UTC","FILE":"3541760","DECAY_DATE":null,"MEAN_ELEMENT_THEORY":"SGP4","MEAN_MOTION_DOT":"-0.00000072","TLE_LINE1":"1 44932U 20001U   22232.76297880 -.00000072  00000-0  14079-4 0  9998","ELEMENT_SET_NO":"999","ARG_OF_PERICENTER":"88.3547","PERIOD":"95.593","EPOCH":"2022-08-20T18:18:41.368320","LAUNCH_DATE":"2020-01-07","SITE":"AFETR","APOAPSIS":"548.293"},{"TLE_LINE1":"1 44933U 20001V   22232.78877457 -.00001088  00000-0 -54148-4 0  9995","ELEMENT_SET_NO":"999","PERIOD":"95.592","ARG_OF_PERICENTER":"77.0329","EPOCH":"2022-08-20T18:55:50.122848","LAUNCH_DATE":"2020-01-07","SITE":"AFETR","APOAPSIS":"548.240","OBJECT_NAME":"STARLINK-1144","GP_ID":"210616747","TIME_SYSTEM":"UTC","DECAY_DATE":null,"FILE":"3541760","MEAN_ELEMENT_THEORY":"SGP4","MEAN_MOTION_DOT":"-0.00001088","TLE_LINE2":"2 44933  53.0555  48.6474 0001477  77.0329 283.0825 15.06398713145661","BSTAR":"-0.00005414800000","INCLINATION":"53.0555","ECCENTRICITY":"0.00014770","PERIAPSIS":"546.195","OBJECT_TYPE":"PAYLOAD","NORAD_CAT_ID":"44933","RCS_SIZE":"LARGE","REF_FRAME":"TEME","EPHEMERIS_TYPE":"0","MEAN_MOTION":"15.06398713","SEMIMAJOR_AXIS":"6925.353","OBJECT_ID":"2020-001V","COUNTRY_CODE":"US","RA_OF_ASC_NODE":"48.6474","CLASSIFICATION_TYPE":"U","MEAN_MOTION_DDOT":"0.0000000000000","CENTER_NAME":"EARTH","MEAN_ANOMALY":"283.0825","REV_AT_EPOCH":"14566"},{"REF_FRAME":"TEME","EPHEMERIS_TYPE":"0","OBJECT_TYPE":"PAYLOAD","NORAD_CAT_ID":"44934","RCS_SIZE":"LARGE","SEMIMAJOR_AXIS":"6925.375","OBJECT_ID":"2020-001W","MEAN_MOTION":"15.06391215","COUNTRY_CODE":"US","RA_OF_ASC_NODE":"29.1823","CLASSIFICATION_TYPE":"U","CENTER_NAME":"EARTH","MEAN_ANOMALY":"249.9783","REV_AT_EPOCH":"14463","MEAN_MOTION_DDOT":"0.0000000000000","SITE":"AFETR","APOAPSIS":"548.349","TLE_LINE1":"1 44934U 20001W   22232.66897919 -.00001999  00000-0 -11538-3 0  9994","ELEMENT_SET_NO":"999","EPOCH":"2022-08-20T16:03:19.802016","PERIOD":"95.593","ARG_OF_PERICENTER":"110.1379","LAUNCH_DATE":"2020-01-07","DECAY_DATE":null,"FILE":"3541760","MEAN_MOTION_DOT":"-0.00001999","MEAN_ELEMENT_THEORY":"SGP4","OBJECT_NAME":"STARLINK-1071","GP_ID":"210617495","TIME_SYSTEM":"UTC","INCLINATION":"53.0550","TLE_LINE2":"2 44934  53.0550  29.1823 0001601 110.1379 249.9783 15.06391215144632","BSTAR":"-0.00011538000000","PERIAPSIS":"546.132","ECCENTRICITY":"0.00016010"},{"OBJECT_ID":"2020-001Z","SEMIMAJOR_AXIS":"6925.381","MEAN_MOTION":"15.06389379","EPHEMERIS_TYPE":"0","REF_FRAME":"TEME","RCS_SIZE":"LARGE","NORAD_CAT_ID":"44937","OBJECT_TYPE":"PAYLOAD","REV_AT_EPOCH":"14466","MEAN_ANOMALY":"260.2089","CENTER_NAME":"EARTH","MEAN_MOTION_DDOT":"0.0000000000000","CLASSIFICATION_TYPE":"U","RA_OF_ASC_NODE":"28.3827","COUNTRY_CODE":"US","MEAN_ELEMENT_THEORY":"SGP4","MEAN_MOTION_DOT":"-0.00001632","DECAY_DATE":null,"FILE":"3541760","TIME_SYSTEM":"UTC","GP_ID":"210617721","OBJECT_NAME":"STARLINK-1079","APOAPSIS":"548.234","SITE":"AFETR","LAUNCH_DATE":"2020-01-07","PERIOD":"95.593","ARG_OF_PERICENTER":"99.9061","EPOCH":"2022-08-20T20:18:07.140672","ELEMENT_SET_NO":"999","TLE_LINE1":"1 44937U 20001Z   22232.84591598 -.00001632  00000-0 -90686-4 0  9997","PERIAPSIS":"546.259","ECCENTRICITY":"0.00014260","INCLINATION":"53.0565","BSTAR":"-0.00009068600000","TLE_LINE2":"2 44937  53.0565  28.3827 0001426  99.9061 260.2089 15.06389379144669"},{"OBJECT_ID":"2020-001AA","SEMIMAJOR_AXIS":"6925.351","MEAN_MOTION":"15.06399172","EPHEMERIS_TYPE":"0","REF_FRAME":"TEME","RCS_SIZE":"LARGE","NORAD_CAT_ID":"44938","OBJECT_TYPE":"PAYLOAD","REV_AT_EPOCH":"14464","MEAN_ANOMALY":"279.5666","CENTER_NAME":"EARTH","MEAN_MOTION_DDOT":"0.0000000000000","CLASSIFICATION_TYPE":"U","RA_OF_ASC_NODE":"28.8327","COUNTRY_CODE":"US","MEAN_ELEMENT_THEORY":"SGP4","MEAN_MOTION_DOT":"0.00000009","FILE":"3541760","DECAY_DATE":null,"GP_ID":"210616497","TIME_SYSTEM":"UTC","OBJECT_NAME":"STARLINK-1082","APOAPSIS":"548.124","SITE":"AFETR","LAUNCH_DATE":"2020-01-07","PERIOD":"95.592","ARG_OF_PERICENTER":"80.5471","EPOCH":"2022-08-20T17:54:47.914560","ELEMENT_SET_NO":"999","TLE_LINE1":"1 44938U 20001AA  22232.74638790  .00000009  00000-0  19476-4 0  9996","PERIAPSIS":"546.308","ECCENTRICITY":"0.00013110","INCLINATION":"53.0567","BSTAR":"0.00001947600000","TLE_LINE2":"2 44938  53.0567  28.8327 0001311  80.5471 279.5666 15.06399172144640"},{"ECCENTRICITY":"0.00014130","PERIAPSIS":"546.262","TLE_LINE2":"2 44939  53.0564  28.4921 0001413  95.8061 264.3089 15.06391336144657","BSTAR":"-0.00000242170000","INCLINATION":"53.0564","GP_ID":"210617247","TIME_SYSTEM":"UTC","OBJECT_NAME":"STARLINK-1083","MEAN_MOTION_DOT":"-0.00000317","MEAN_ELEMENT_THEORY":"SGP4","FILE":"3541760","DECAY_DATE":null,"LAUNCH_DATE":"2020-01-07","EPOCH":"2022-08-20T19:40:57.695808","PERIOD":"95.593","ARG_OF_PERICENTER":"95.8061","ELEMENT_SET_NO":"999","TLE_LINE1":"1 44939U 20001AB  22232.82011222 -.00000317  00000-0 -24217-5 0  9995","APOAPSIS":"548.219","SITE":"AFETR","MEAN_MOTION_DDOT":"0.0000000000000","REV_AT_EPOCH":"14465","MEAN_ANOMALY":"264.3089","CENTER_NAME":"EARTH","CLASSIFICATION_TYPE":"U","RA_OF_ASC_NODE":"28.4921","COUNTRY_CODE":"US","MEAN_MOTION":"15.06391336","OBJECT_ID":"2020-001AB","SEMIMAJOR_AXIS":"6925.375","RCS_SIZE":"LARGE","NORAD_CAT_ID":"44939","OBJECT_TYPE":"PAYLOAD","EPHEMERIS_TYPE":"0","REF_FRAME":"TEME"},{"APOAPSIS":"548.170","SITE":"AFETR","LAUNCH_DATE":"2020-01-07","PERIOD":"95.592","EPOCH":"2022-08-20T16:45:48.068064","ARG_OF_PERICENTER":"79.4362","ELEMENT_SET_NO":"999","TLE_LINE1":"1 44940U 20001AC  22232.69847301  .00000333  00000-0  41276-4 0  9996","MEAN_MOTION_DOT":"0.00000333","MEAN_ELEMENT_THEORY":"SGP4","DECAY_DATE":null,"FILE":"3541760","GP_ID":"210617994","TIME_SYSTEM":"UTC","OBJECT_NAME":"STARLINK-1091","INCLINATION":"53.0570","BSTAR":"0.00004127600000","TLE_LINE2":"2 44940  53.0570  29.0465 0001368  79.4362 280.6781 15.06396921144630","PERIAPSIS":"546.276","ECCENTRICITY":"0.00013680","EPHEMERIS_TYPE":"0","REF_FRAME":"TEME","RCS_SIZE":"LARGE","NORAD_CAT_ID":"44940","OBJECT_TYPE":"PAYLOAD","OBJECT_ID":"2020-001AC","SEMIMAJOR_AXIS":"6925.358","MEAN_MOTION":"15.06396921","CLASSIFICATION_TYPE":"U","COUNTRY_CODE":"US","RA_OF_ASC_NODE":"29.0465","REV_AT_EPOCH":"14463","MEAN_ANOMALY":"280.6781","CENTER_NAME":"EARTH","MEAN_MOTION_DDOT":"0.0000000000000"},{"PERIAPSIS":"546.186","ECCENTRICITY":"0.00014190","INCLINATION":"53.0567","TLE_LINE2":"2 44941  53.0567  28.9498 0001419  82.8687 277.2464 15.06414729144644","BSTAR":"-0.00021274000000","MEAN_ELEMENT_THEORY":"SGP4","MEAN_MOTION_DOT":"-0.00003450","DECAY_DATE":null,"FILE":"3541760","OBJECT_NAME":"STARLINK-1094","GP_ID":"210618219","TIME_SYSTEM":"UTC","SITE":"AFETR","APOAPSIS":"548.151","ELEMENT_SET_NO":"999","TLE_LINE1":"1 44941U 20001AD  22232.72058418 -.00003450  00000-0 -21274-3 0  9994","LAUNCH_DATE":"2020-01-07","PERIOD":"95.591","ARG_OF_PERICENTER":"82.8687","EPOCH":"2022-08-20T17:17:38.473152","MEAN_ANOMALY":"277.2464","CENTER_NAME":"EARTH","REV_AT_EPOCH":"14464","MEAN_MOTION_DDOT":"0.0000000000000","CLASSIFICATION_TYPE":"U","COUNTRY_CODE":"US","RA_OF_ASC_NODE":"28.9498","SEMIMAJOR_AXIS":"6925.303","OBJECT_ID":"2020-001AD","MEAN_MOTION":"15.06414729","EPHEMERIS_TYPE":"0","REF_FRAME":"TEME","NORAD_CAT_ID":"44941","OBJECT_TYPE":"PAYLOAD","RCS_SIZE":"LARGE"},{"PERIAPSIS":"538.646","ECCENTRICITY":"0.00019780","INCLINATION":"53.0553","TLE_LINE2":"2 44942  53.0553  27.5726 0001978  82.2191 277.9023 15.08751876144673","BSTAR":"0.00063474000000","MEAN_ELEMENT_THEORY":"SGP4","MEAN_MOTION_DOT":"0.00009805","DECAY_DATE":null,"FILE":"3541760","OBJECT_NAME":"STARLINK-1096","GP_ID":"210616997","TIME_SYSTEM":"UTC","SITE":"AFETR","APOAPSIS":"541.383","ELEMENT_SET_NO":"999","TLE_LINE1":"1 44942U 20001AE  22232.81540891  .00009805  00000-0  63474-3 0  9992","LAUNCH_DATE":"2020-01-07","PERIOD":"95.443","ARG_OF_PERICENTER":"82.2191","EPOCH":"2022-08-20T19:34:11.329824","MEAN_ANOMALY":"277.9023","CENTER_NAME":"EARTH","REV_AT_EPOCH":"14467","MEAN_MOTION_DDOT":"0.0000000000000","CLASSIFICATION_TYPE":"U","RA_OF_ASC_NODE":"27.5726","COUNTRY_CODE":"US","SEMIMAJOR_AXIS":"6918.150","OBJECT_ID":"2020-001AE","MEAN_MOTION":"15.08751876","EPHEMERIS_TYPE":"0","REF_FRAME":"TEME","NORAD_CAT_ID":"44942","OBJECT_TYPE":"PAYLOAD","RCS_SIZE":"LARGE"},{"MEAN_MOTION_DDOT":"0.0000000000000","MEAN_ANOMALY":"268.5711","CENTER_NAME":"EARTH","REV_AT_EPOCH":"14464","CLASSIFICATION_TYPE":"U","COUNTRY_CODE":"US","RA_OF_ASC_NODE":"28.8151","MEAN_MOTION":"15.06393275","SEMIMAJOR_AXIS":"6925.369","OBJECT_ID":"2020-001AF","NORAD_CAT_ID":"44943","OBJECT_TYPE":"PAYLOAD","RCS_SIZE":"LARGE","EPHEMERIS_TYPE":"0","REF_FRAME":"TEME","ECCENTRICITY":"0.00014760","PERIAPSIS":"546.212","TLE_LINE2":"2 44943  53.0565  28.8151 0001476  91.5447 268.5711 15.06393275144643","BSTAR":"-0.00005177400000","INCLINATION":"53.0565","OBJECT_NAME":"STARLINK-1100","TIME_SYSTEM":"UTC","GP_ID":"210616748","MEAN_ELEMENT_THEORY":"SGP4","MEAN_MOTION_DOT":"-0.00001052","FILE":"3541760","DECAY_DATE":null,"ELEMENT_SET_NO":"999","TLE_LINE1":"1 44943U 20001AF  22232.75007713 -.00001052  00000-0 -51774-4 0  9996","LAUNCH_DATE":"2020-01-07","EPOCH":"2022-08-20T18:00:06.664032","PERIOD":"95.593","ARG_OF_PERICENTER":"91.5447","SITE":"AFETR","APOAPSIS":"548.256"}];
